STARLINK-2466           
1 48125U 21027AK  26068.53027107  .00010076  00000+0  35181-3 0  9993
2 48125  53.1608 166.0309 0001437  88.3719 271.7447 15.30205487272481
BANDWAGON-2 OBJECT D    
1 62380U 24247D   26068.52261193  .00011259  00000+0  40119-3 0  9994
2 62380  44.9954 115.6710 0003488 351.1453   8.9368 15.29076102 67732
